CCSDS_OMM_VERS,COMMENT,CREATION_DATE,ORIGINATOR,OBJECT_NAME,OBJECT_ID,CENTER_NAME,REF_FRAME,TIME_SYSTEM,MEAN_ELEMENT_THEORY,EPOCH,MEAN_MOTION,ECCENTRICITY,INCLINATION,RA_OF_ASC_NODE,ARG_OF_PERICENTER,MEAN_ANOMALY,EPHEMERIS_TYPE,CLASSIFICATION_TYPE,NORAD_CAT_ID,ELEMENT_SET_NO,REV_AT_EPOCH,BSTAR,MEAN_MOTION_DOT,MEAN_MOTION_DDOT,SEMIMAJOR_AXIS,PERIOD,APOAPSIS,PERIAPSIS,OBJECT_TYPE,RCS_SIZE,COUNTRY_CODE,LAUNCH_DATE,SITE,DECAY_DATE,FILE,GP_ID,TLE_LINE0,TLE_LINE1,TLE_LINE2
3.0,GENERATED VIA SPACE-TRACK.ORG API,2014-02-12T23:38:15,18 SPCS,IRIDIUM 33 DEB,1997-051BS,EARTH,TEME,UTC,SGP4,2014-02-12T21:00:34.106399,15.62372301,0.0013364,86.262,72.649,133.4651,350.3055,0,U,33957,999,26165,0.0846,0.08974994,0.0,6758.947,92.167,389.845,371.78,DEBRIS,SMALL,US,1997-09-14,TTMTR,2014-02-14,1631280,95145001,0 IRIDIUM 33 DEB,1 33957U 97051BS  14043.87539475  .08974994  00000-0  84600-1 0  9998,2 33957 086.2620 072.6490 0013364 133.4651 350.3055 15.62372301261652
3.0,GENERATED VIA SPACE-TRACK.ORG API,2004-08-16T23:15:23,18 SPCS,COSMOS 1224 DEB,1980-096C,EARTH,TEME,UTC,SGP4,1981-05-04T11:15:21.214655,16.54334249,0.001789,72.8269,242.0379,297.9913,61.9199,0,U,12095,999,2427,0.0001226,0.22561436,8.7742e-06,6506.088,87.044,139.592,116.313,DEBRIS,LARGE,CIS,1980-12-01,PKMTR,1981-05-04,34334,12223149,0 COSMOS 1224 DEB,1 12095U 80096  C 81124.46899554  .22561436 +87742-5 +12260-3 0  9992,2 12095 072.8269 242.0379 0017890 297.9913 061.9199 16.54334249024276
3.0,GENERATED VIA SPACE-TRACK.ORG API,2023-07-06T23:06:12,18 SPCS,TK-1,2017-012A,EARTH,TEME,UTC,SGP4,2023-07-06T13:56:15.716544,16.46139019,0.0012616,97.0952,206.3665,247.1172,112.88,0,U,42061,999,36143,0.00025628,0.12626825,2.4105e-06,6527.66,87.477,157.76,141.289,PAYLOAD,MEDIUM,PRC,2017-03-02,JSC,2023-07-07,3951426,234759934,0 TK-1,1 42061U 17012A   23187.58073746  .12626825  24105-5  25628-3 0  9990,2 42061  97.0952 206.3665 0012616 247.1172 112.8800 16.46139019361432
3.0,GENERATED VIA SPACE-TRACK.ORG API,2018-02-28T06:52:35,18 SPCS,SOYUZ MS-06,2017-054A,EARTH,TEME,UTC,SGP4,2018-02-27T15:33:08.604864,15.54160216,0.0003113,51.6402,204.7914,133.9046,319.3314,0,U,42937,999,10148,3.8351e-05,2.063e-05,0.0,6782.731,92.654,406.708,402.485,PAYLOAD,MEDIUM,CIS,2017-09-12,TTMTR,2018-02-28,2252209,118238659,0 SOYUZ MS-06,1 42937U 17054A   18058.64801626 +.00002063 +00000-0 +38351-4 0  9992,2 42937 051.6402 204.7914 0003113 133.9046 319.3314 15.54160216101485
3.0,GENERATED VIA SPACE-TRACK.ORG API,2022-04-15T02:16:11,18 SPCS,COSMOS 1408 DEB,1982-092BWX,EARTH,TEME,UTC,SGP4,2022-04-05T22:15:53.038080,15.41827919,0.0018901,82.5792,340.9004,9.6147,350.5457,0,U,52239,999,521,0.0016338,0.00070198,0.0,6818.852,93.396,453.605,427.828,DEBRIS,,CIS,1982-09-16,PKMTR,2022-08-04,3401956,201235008,0 COSMOS 1408 DEB,1 52239U 82092BWX 22095.92769720  .00070198  00000-0  16338-2 0  9990,2 52239  82.5792 340.9004 0018901   9.6147 350.5457 15.41827919  5216
3.0,GENERATED VIA SPACE-TRACK.ORG API,2015-04-07T11:56:56,18 SPCS,METEOR 2-5 DEB,1979-095BL,EARTH,TEME,UTC,SGP4,2015-04-01T01:32:10.392288,15.60520225,0.0025751,81.0772,223.6572,299.9721,59.8975,0,U,36919,999,63607,0.010798,0.00996549,0.0,6764.29,92.276,403.574,368.736,DEBRIS,SMALL,CIS,1979-10-31,PKMTR,2015-04-12,1852353,98808553,0 METEOR 2-5 DEB,1 36919U 79095BL  15091.06400917  .00996549  00000-0  10798-1 0  9999,2 36919 081.0772 223.6572 0025751 299.9721 059.8975 15.60520225636074
3.0,GENERATED VIA SPACE-TRACK.ORG API,2004-05-27T14:45:45,18 SPCS,CZ-4 DEB,1999-057AZ,EARTH,TEME,UTC,SGP4,2001-10-07T05:39:50.414688,16.24469821,0.0013636,97.6846,7.4897,262.5118,92.7062,0,U,26163,999,8641,0.0025731,0.07040795,2.6349e-06,6585.584,88.644,216.43,198.469,DEBRIS,SMALL,PRC,1999-10-14,TSC,2001-10-08,6271,1237721,0 CZ-4 DEB,1 26163U 99057AZ  01280.23600017 +.07040795 +26349-5 +25731-2 0  9999,2 26163 097.6846 007.4897 0013636 262.5118 092.7062 16.24469821086417
3.0,GENERATED VIA SPACE-TRACK.ORG API,2022-04-08T22:36:11,18 SPCS,ASTRO H DEB,2016-012S,EARTH,TEME,UTC,SGP4,2022-04-08T13:33:34.603776,15.84653315,0.0013308,30.9913,193.1637,66.0103,294.1947,0,U,42674,999,32376,0.0088311,0.02481407,0.0,6695.438,90.872,326.213,308.393,DEBRIS,SMALL,JPN,2016-02-17,TNSTA,2022-04-11,3393699,200752474,0 ASTRO H DEB,1 42674U 16012S   22098.56498384  .02481407  00000-0  88311-2 0  9990,2 42674  30.9913 193.1637 0013308  66.0103 294.1947 15.84653315323769
3.0,GENERATED VIA SPACE-TRACK.ORG API,2004-08-15T23:47:17,18 SPCS,COSMOS 790,1976-007A,EARTH,TEME,UTC,SGP4,1980-11-12T11:51:00.790560,16.43741132,0.0006274,73.9383,348.9167,280.0993,79.9657,0,U,8604,999,26757,0.00020342,0.14915203,6.2292e-06,6534.01,87.605,159.975,151.776,PAYLOAD,LARGE,CIS,1976-01-22,PKMTR,1980-11-12,34144,11474213,0 COSMOS 790,1 08604U 76007  A 80317.49375915  .14915203 +62292-5 +20342-3 0  9995,2 08604 073.9383 348.9167 0006274 280.0993 079.9657 16.43741132267573
3.0,GENERATED VIA SPACE-TRACK.ORG API,2004-08-16T23:15:23,18 SPCS,COSMOS 1264 DEB,1981-035E,EARTH,TEME,UTC,SGP4,1981-05-04T07:47:12.408287,15.65877817,0.0046279,70.3687,352.6661,186.4847,173.5761,0,U,12432,999,295,0.0030892,0.00333732,0.0,6748.856,91.961,401.954,339.488,DEBRIS,,,,,1981-05-04,34334,12262231,0 COSMOS 1264 DEB,1 12432U 81035  E 81124.32444917  .00333732 +00000-0 +30892-2 0  9994,2 12432 070.3687 352.6661 0046279 186.4847 173.5761 15.65877817002951
3.0,GENERATED VIA SPACE-TRACK.ORG API,2004-08-17T15:15:00,18 SPCS,MIR DEB,1986-017MU,EARTH,TEME,UTC,SGP4,1998-05-30T09:17:49.342559,16.265921,0.0005773,51.6402,132.1161,196.1375,164.5963,0,U,25304,999,579,0.0032754,0.1130529,1.1941e-05,6579.855,88.528,205.518,197.921,DEBRIS,MEDIUM,CIS,1986-02-19,TTMTR,1998-05-31,35349,27615816,0 MIR DEB,1 25304U 86017MU  98150.38737665 +.11305290 +11941-4 +32754-2 0  9998,2 25304 051.6402 132.1161 0005773 196.1375 164.5963 16.26592100005790
3.0,GENERATED VIA SPACE-TRACK.ORG API,2023-12-22T19:06:15,18 SPCS,CZ-2C R/B,2018-011E,EARTH,TEME,UTC,SGP4,2023-12-22T15:50:26.598912,16.39180891,0.000706,34.966,91.883,7.6961,104.5303,0,U,43173,999,33112,0.00060955,0.07972068,1.4337e-06,6546.119,87.849,172.606,163.363,ROCKET BODY,LARGE,PRC,2018-01-25,XSC,2023-12-23,4142516,245276332,0 CZ-2C R/B,1 43173U 18011E   23356.66003008  .07972068  14337-5  60955-3 0  9991,2 43173  34.9660  91.8830 0007060   7.6961 104.5303 16.39180891331121
3.0,GENERATED VIA SPACE-TRACK.ORG API,2024-11-28T06:26:19,18 SPCS,NOAA 16 DEB,2000-055EP,EARTH,TEME,UTC,SGP4,2024-11-27T22:39:18.207936,15.85479447,0.0018879,98.8232,227.2631,109.0434,251.2878,0,U,41234,999,47259,0.039657,0.07447785,0.077616,6693.112,90.824,327.613,302.341,DEBRIS,SMALL,US,2000-09-21,AFWTR,2024-12-03,4565278,274186445,0 NOAA 16 DEB,1 41234U 00055EP  24332.94396074  .07447785  77616-1  39657-1 0  9991,2 41234  98.8232 227.2631 0018879 109.0434 251.2878 15.85479447472599
3.0,GENERATED VIA SPACE-TRACK.ORG API,2004-08-15T23:36:23,18 SPCS,COSMOS 258,1968-111A,EARTH,TEME,UTC,SGP4,1968-12-15T22:37:16.198176,16.08941389,0.0069835,64.9713,220.8355,45.514,315.1599,0,U,3602,999,90,0.0,0.00148422,0.0,6627.89,89.499,296.041,203.469,PAYLOAD,,,,,1968-12-18,33926,8790557,0 COSMOS 258,1 03602U 68111  A 68350.94254859  .00148422 +00000-0 +00000-0 0  9997,2 03602 064.9713 220.8355 0069835 045.5140 315.1599 16.08941389000909
3.0,GENERATED VIA SPACE-TRACK.ORG API,2004-08-16T23:16:38,18 SPCS,COSMOS 1351 DEB,1982-034Z,EARTH,TEME,UTC,SGP4,1983-02-28T20:18:17.930304,16.18797302,0.0012391,50.6903,1.0557,325.739,34.2812,0,U,13865,999,4893,3.548e-06,0.01356554,3.494e-07,6600.96,88.954,231.004,214.646,DEBRIS,,,,,1983-03-03,34359,13439650,0 COSMOS 1351 DEB,1 13865U 82034  Z 83059.84604086  .01356554 +03494-5 +03548-4 0  9999,2 13865 050.6903 001.0557 0012391 325.7390 034.2812 16.18797302048939
3.0,GENERATED VIA SPACE-TRACK.ORG API,2004-08-16T23:25:47,18 SPCS,COSMOS 1813 DEB,1987-004CW,EARTH,TEME,UTC,SGP4,1987-07-21T11:40:26.175647,15.9709442,0.0033241,72.7943,189.0662,164.2002,196.0302,0,U,17888,999,2717,0.00042127,0.00193949,7.8049e-07,6660.626,90.163,304.631,260.35,DEBRIS,,,,,1987-08-17,34542,15626350,0 COSMOS 1813 DEB,1 17888U 87004 CW 87202.48641407  .00193949 +78049-6 +42127-3 0  9992,2 17888 072.7943 189.0662 0033241 164.2002 196.0302 15.97094420027175
3.0,GENERATED VIA SPACE-TRACK.ORG API,2005-04-29T09:15:42,18 SPCS,DELTA 1 DEB (YO),1961-017C,EARTH,TEME,UTC,SGP4,1992-03-01T10:25:47.578943,16.10528449,0.0006173,47.9289,70.8616,14.9088,345.6348,0,U,166,999,64990,0.0028131,0.02354195,0.008704,6623.535,89.411,249.488,241.311,DEBRIS,MEDIUM,US,1961-07-12,AFETR,1992-03-02,131233,45131980,0 DELTA 1 DEB (YO),1 00166U 61017  C 92061.43457846  .02354195 +87040-2 +28131-2 0  9994,2 00166 047.9289 070.8616 0006173 014.9088 345.6348 16.10528449649900
3.0,GENERATED VIA SPACE-TRACK.ORG API,2014-07-02T15:23:22,18 SPCS,COSMOS 2251 DEB,1993-036PE,EARTH,TEME,UTC,SGP4,2014-07-02T11:05:18.764736,15.9539319,0.0027391,73.9619,188.3926,236.8989,275.4512,0,U,34332,999,28741,0.0146,0.04756386,0.033271,6665.36,90.259,305.482,268.968,DEBRIS,SMALL,CIS,1993-06-16,PKMTR,2014-07-03,1707381,96345864,0 COSMOS 2251 DEB,1 34332U 93036PE  14183.46202274  .04756386  33271-1  14600-1 0  9998,2 34332 073.9619 188.3926 0027391 236.8989 275.4512 15.95393190287419
3.0,GENERATED VIA SPACE-TRACK.ORG API,2015-05-01T07:26:40,18 SPCS,METEOR 2-5 DEB,1979-095AV,EARTH,TEME,UTC,SGP4,2015-04-30T21:52:12.790560,15.80235299,0.0029012,81.0766,188.1898,279.0798,80.7182,0,U,36904,999,53464,0.015055,0.03397818,0.0,6707.911,91.125,349.237,310.315,DEBRIS,SMALL,CIS,1979-10-31,PKMTR,2015-05-03,1864371,99028611,0 METEOR 2-5 DEB,1 36904U 79095AV  15120.91125915  .03397818  00000-0  15055-1 0  9990,2 36904 081.0766 188.1898 0029012 279.0798 080.7182 15.80235299534643
